{
    "links": {
        "self": "http://www.neowsapp.com/rest/v1/neo/3728375?api_key=iIulBulltgU6a56xZRHN4H3l9WmuAYTsLGpBGhQ2"
    },
    "id": "3728375",
    "neo_reference_id": "3728375",
    "name": "(2015 SU)",
    "designation": "2015 SU",
    "nasa_jpl_url": "http://ssd.jpl.nasa.gov/sbdb.cgi?sstr=3728375",
    "absolute_magnitude_h": 25.4,
    "estimated_diameter": {
        "kilometers": {
            "estimated_diameter_min": 0.022108281,
            "estimated_diameter_max": 0.0494356193
        },
        "meters": {
            "estimated_diameter_min": 22.1082810359,
            "estimated_diameter_max": 49.435619262
        },
        "miles": {
            "estimated_diameter_min": 0.0137374447,
            "estimated_diameter_max": 0.0307178602
        },
        "feet": {
            "estimated_diameter_min": 72.5337327539,
            "estimated_diameter_max": 162.1903570994
        }
    },
    "is_potentially_hazardous_asteroid": false,
    "close_approach_data": [
        {
            "close_approach_date": "2008-10-10",
            "close_approach_date_full": "2008-Oct-10 15:32",
            "epoch_date_close_approach": 1223652720000,
            "relative_velocity": {
                "kilometers_per_second": "10.8626824648",
                "kilometers_per_hour": "39105.656873442",
                "miles_per_hour": "24298.7344056118"
            },
            "miss_distance": {
                "astronomical": "0.2234182792",
                "lunar": "86.9097106088",
                "kilometers": "33422898.687385304",
                "miles": "20768026.2181690352"
            },
            "orbiting_body": "Earth"
        },
        {
            "close_approach_date": "2015-09-23",
            "close_approach_date_full": "2015-Sep-23 09:45",
            "epoch_date_close_approach": 1443001500000,
            "relative_velocity": {
                "kilometers_per_second": "8.9281643488",
                "kilometers_per_hour": "32141.3916556037",
                "miles_per_hour": "19971.4108317833"
            },
            "miss_distance": {
                "astronomical": "0.0379506749",
                "lunar": "14.7628125361",
                "kilometers": "5677340.130102463",
                "miles": "3527735.5735734694"
            },
            "orbiting_body": "Earth"
        },
        {
            "close_approach_date": "2022-09-05",
            "close_approach_date_full": "2022-Sep-05 11:21",
            "epoch_date_close_approach": 1662376860000,
            "relative_velocity": {
                "kilometers_per_second": "12.0630606351",
                "kilometers_per_hour": "43427.0182864223",
                "miles_per_hour": "26983.8603346939"
            },
            "miss_distance": {
                "astronomical": "0.2373465609",
                "lunar": "92.3278121901",
                "kilometers": "35506539.962465283",
                "miles": "22062740.8697875854"
            },
            "orbiting_body": "Earth"
        },
        {
            "close_approach_date": "2088-10-30",
            "close_approach_date_full": "2088-Oct-30 18:30",
            "epoch_date_close_approach": 3749999400000,
            "relative_velocity": {
                "kilometers_per_second": "17.0055748126",
                "kilometers_per_hour": "61220.0693252326",
                "miles_per_hour": "38039.7702982258"
            },
            "miss_distance": {
                "astronomical": "0.4828984905",
                "lunar": "187.8475128045",
                "kilometers": "72240585.605015235",
                "miles": "44888218.400610843"
            },
            "orbiting_body": "Earth"
        },
        {
            "close_approach_date": "2168-10-20",
            "close_approach_date_full": "2168-Oct-20 13:48",
            "epoch_date_close_approach": 6273640080000,
            "relative_velocity": {
                "kilometers_per_second": "12.9670467001",
                "kilometers_per_hour": "46681.3681203528",
                "miles_per_hour": "29005.9867634492"
            },
            "miss_distance": {
                "astronomical": "0.3280910663",
                "lunar": "127.6274247907",
                "kilometers": "49081724.684508781",
                "miles": "30497969.5093159378"
            },
            "orbiting_body": "Earth"
        }
    ],
    "orbital_data": {
        "orbit_id": "12",
        "orbit_determination_date": "2017-04-06 08:31:49",
        "first_observation_date": "2015-09-19",
        "last_observation_date": "2015-10-10",
        "data_arc_in_days": 21,
        "observations_used": 86,
        "orbit_uncertainty": "7",
        "minimum_orbit_intersection": ".0386609",
        "jupiter_tisserand_invariant": "4.572",
        "epoch_osculation": "2459000.5",
        "eccentricity": ".2829049639722947",
        "semi_major_axis": "1.447065536787555",
        "inclination": "15.1069801528515",
        "ascending_node_longitude": "179.3637266829627",
        "orbital_period": "635.8149387644991",
        "perihelion_distance": "1.037683513237122",
        "perihelion_argument": "190.956315789342",
        "aphelion_distance": "1.856447560337987",
        "perihelion_time": "2459206.183496146261",
        "mean_anomaly": "243.5414928178023",
        "mean_motion": ".5662024876287803",
        "equinox": "J2000",
        "orbit_class": {
            "orbit_class_type": "AMO",
            "orbit_class_description": "Near-Earth asteroid orbits similar to that of 1221 Amor",
            "orbit_class_range": "1.017 AU < q (perihelion) < 1.3 AU"
        }
    },
    "is_sentry_object": false
}